[{"OBJECT_NAME":"ONEWEB-0286","OBJECT_ID":"2021-075B","EPOCH":"2026-03-09T20:35:13.150176","MEAN_MOTION":13.12443377,"ECCENTRICITY":0.00016894,"INCLINATION":87.8993,"RA_OF_ASC_NODE":10.4015,"ARG_OF_PERICENTER":72.9605,"MEAN_ANOMALY":287.1708,"EPHEMERIS_TYPE":0,"CLASSIFICATION_TYPE":"U","NORAD_CAT_ID":49076,"ELEMENT_SET_NO":999,"REV_AT_EPOCH":22153,"BSTAR":-0.0011417264,"MEAN_MOTION_DOT":-3.98e-6,"MEAN_MOTION_DDOT":0},{"OBJECT_NAME":"METEOR 3-1","OBJECT_ID":"1985-100A","EPOCH":"2026-03-09T15:52:13.980288","MEAN_MOTION":13.1731561,"ECCENTRICITY":0.0018691,"INCLINATION":82.5446,"RA_OF_ASC_NODE":106.3991,"ARG_OF_PERICENTER":244.557,"MEAN_ANOMALY":235.8257,"EPHEMERIS_TYPE":0,"CLASSIFICATION_TYPE":"U","NORAD_CAT_ID":16191,"ELEMENT_SET_NO":999,"REV_AT_EPOCH":94123,"BSTAR":0.00029887,"MEAN_MOTION_DOT":1.28e-6,"MEAN_MOTION_DDOT":0}]
